     2.100          NAVIGATION                              RINEX VERSION / TYPE
fic2rin                                 07/13/2012 00:27:04 PGM / RUN BY / DATE
                                                            END OF HEADER
 4 12  7 12 22  0  0.0  .241937115788D-03  .113686837722D-10  .000000000000D+00
     .820000000000D+02 -.787500000000D+01  .515985778593D-08 -.138179244580D+01
    -.385567545891D-06  .100371820154D-01  .736117362976D-05  .515362032890D+04
     .424800000000D+06  .247731804848D-06 -.198499563024D+01  .670552253723D-07
     .937421779448D+00  .223750000000D+03  .868857167297D+00 -.818248369043D-08
    -.291797868838D-09  .100000000000D+01  .169600000000D+04  .000000000000D+00
     .240000000000D+01  .000000000000D+00 -.605359673500D-08  .820000000000D+02
     .417606000000D+06  .400000000000D+01
 5 12  7 12 22  0  0.0 -.334019772708D-03 -.352429196937D-11  .000000000000D+00
     .520000000000D+02  .669375000000D+02  .454697511405D-08 -.247331350115D+01
     .344403088093D-05  .270190613810D-02  .907480716705D-05  .515370333290D+04
     .424800000000D+06  .130385160446D-07 -.937946089288D+00  .353902578354D-07
     .950480362614D+00  .200437500000D+03  .204274484075D+00 -.796533178804D-08
    -.150720563831D-09  .100000000000D+01  .169600000000D+04  .000000000000D+00
     .240000000000D+01  .000000000000D+00 -.102445483208D-07  .520000000000D+02
     .417606000000D+06  .400000000000D+01
 6 12  7 12 22  0  0.0  .774627551436D-05 -.488853402203D-11  .000000000000D+00
     .860000000000D+02 -.662500000000D+01  .521021702645D-08 -.255664906841D+01
    -.234693288803D-06  .736597133800D-02  .730529427528D-05  .515368539047D+04
     .424800000000D+06 -.158324837685D-06 -.308930610353D+01  .726431608200D-07
     .938806018868D+00  .227687500000D+03 -.495852567575D+00 -.817748348215D-08
     .298941023522D-09  .100000000000D+01  .169600000000D+04  .000000000000D+00
     .240000000000D+01  .000000000000D+00 -.512227416039D-08  .860000000000D+02
     .417606000000D+06  .400000000000D+01
 7 12  7 12 22  0  0.0  .997800379992D-04  .386535248253D-11  .000000000000D+00
     .490000000000D+02 -.388750000000D+02  .417338812408D-08  .344465929463D+00
    -.201724469662D-05  .565747101791D-02  .459328293800D-05  .515373330879D+04
     .424800000000D+06  .651925802231D-07  .117353260714D+01  .502914190292D-07
     .975757961721D+00  .299000000000D+03 -.302772642635D+01 -.808712257540D-08
    -.128576784311D-10  .100000000000D+01  .169600000000D+04  .000000000000D+00
     .240000000000D+01  .000000000000D+00 -.107102096081D-07  .490000000000D+02
     .417606000000D+06  .400000000000D+01
 8 12  7 12 22  0  0.0  .173738226295D-05  .113686837722D-12  .000000000000D+00
     .900000000000D+01 -.442500000000D+02  .374194158117D-08 -.370017749639D+00
    -.224262475967D-05  .124350304250D-01  .546686351299D-05  .515366678238D+04
     .424800000000D+06  .188127160072D-06  .125788528283D+01  .707805156708D-07
     .997970384649D+00  .290343750000D+03 -.296018649176D+01 -.791568686299D-08
    -.214294640518D-11  .100000000000D+01  .169600000000D+04  .000000000000D+00
     .240000000000D+01  .000000000000D+00 -.372529029846D-08  .900000000000D+01
     .417606000000D+06  .400000000000D+01
 9 12  7 12 22  0  0.0  .171294901520D-03  .250111042988D-11  .000000000000D+00
     .120000000000D+02 -.448437500000D+02  .407409827397D-08 -.372925498278D+00
    -.251457095146D-05  .175105524249D-01  .549107789993D-05  .515361728668D+04
     .424800000000D+06 -.223517417908D-06  .114812157235D+01  .968575477600D-07
     .984487545001D+00  .291343750000D+03  .163329805637D+01 -.828034490960D-08
     .167864135072D-10  .100000000000D+01  .169600000000D+04  .000000000000D+00
     .240000000000D+01  .000000000000D+00 -.558793544769D-08  .120000000000D+02
     .417606000000D+06  .400000000000D+01
10 12  7 12 22  0  0.0 -.445554032922D-04 -.136424205266D-11  .000000000000D+00
     .670000000000D+02  .599375000000D+02  .460983487527D-08 -.223242886455D+01
     .309012830257D-05  .113636057358D-01  .843033194542D-05  .515371014404D+04
     .424800000000D+06  .279396772385D-07 -.916643130346D+00 -.102445483208D-06
     .945369649526D+00  .209843750000D+03  .752877402332D+00 -.784068373881D-08
    -.900037490174D-10  .100000000000D+01  .169600000000D+04  .000000000000D+00
     .340000000000D+01  .000000000000D+00 -.232830643654D-08  .670000000000D+02
     .417606000000D+06  .400000000000D+01
11 12  7 12 22  0  0.0 -.281090382487D-03 -.386535248253D-11  .000000000000D+00
     .660000000000D+02 -.153125000000D+02  .664777690659D-08  .424926880253D+00
    -.547617673874D-06  .130940950476D-01  .624544918537D-05  .515367242813D+04
     .424800000000D+06 -.126659870148D-06 -.226053350749D+01  .912696123123D-07
     .888087962760D+00  .219937500000D+03  .106152906522D+01 -.923895626818D-08
    -.249296098469D-09  .100000000000D+01  .169600000000D+04  .000000000000D+00
     .240000000000D+01  .000000000000D+00 -.116415321827D-07  .660000000000D+02
     .417606000000D+06  .400000000000D+01
13 12  7 12 22  0  0.0  .195054337382D-03 -.250111042988D-11  .000000000000D+00
     .670000000000D+02  .577187500000D+02  .384551732409D-08  .254904896761D+01
     .307895243168D-05  .494625023566D-02  .458024442196D-05  .515364789963D+04
     .424800000000D+06  .279396772385D-07  .203703776326D+00  .465661287308D-07
     .985547003440D+00  .303343750000D+03  .204507512588D+01 -.779282460242D-08
     .242867259253D-10  .100000000000D+01  .169600000000D+04  .000000000000D+00
     .240000000000D+01  .000000000000D+00 -.111758708954D-07  .670000000000D+02
     .417606000000D+06  .400000000000D+01
14 12  7 12 22  0  0.0  .206949654967D-03  .682121026330D-12  .000000000000D+00
     .860000000000D+02  .640000000000D+02  .396837958465D-08  .279079914261D+01
     .330619513988D-05  .654489966109D-02  .476092100143D-05  .515361362076D+04
     .424800000000D+06  .931322574615D-08  .176697511292D+00 -.540167093277D-07
     .978362861449D+00  .295750000000D+03 -.207078211193D+01 -.787175646168D-08
     .127505311108D-09  .100000000000D+01  .169600000000D+04  .000000000000D+00
     .240000000000D+01  .000000000000D+00 -.884756445885D-08  .860000000000D+02
     .417606000000D+06  .400000000000D+01
15 12  7 12 22  0  0.0 -.924565829337D-04 -.341060513165D-12  .000000000000D+00
     .530000000000D+02  .668437500000D+02  .488806075021D-08  .232557166930D+01
     .344216823578D-05  .442993547767D-02  .425241887569D-05  .515359126282D+04
     .424800000000D+06 -.447034835815D-07  .874162865421D-01  .745058059692D-08
     .945149939712D+00  .289375000000D+03  .448444648891D-01 -.838892086080D-08
     .457161899771D-10  .100000000000D+01  .169600000000D+04  .000000000000D+00
     .240000000000D+01  .000000000000D+00 -.102445483208D-07  .530000000000D+02
     .417606000000D+06  .400000000000D+01
16 12  7 12 22  0  0.0 -.240894500166D-03 -.102318153949D-11  .000000000000D+00
     .140000000000D+02 -.560000000000D+02  .403588239642D-08 -.228116923389D+01
    -.300817191601D-05  .660271302331D-02  .870972871780D-05  .515370894051D+04
     .424800000000D+06 -.875443220139D-07  .224877031196D+01 -.143423676491D-06
     .981204705629D+00  .226343750000D+03  .173889113808D-01 -.770103506474D-08
     .254296306748D-09  .100000000000D+01  .169600000000D+04  .000000000000D+00
     .240000000000D+01  .000000000000D+00 -.977888703346D-08  .140000000000D+02
     .417606000000D+06  .400000000000D+01
17 12  7 12 22  0  0.0  .113890040666D-03 -.295585778076D-11  .000000000000D+00
     .570000000000D+02 -.149375000000D+02  .469269546960D-08  .307148348960D+01
    -.772997736931D-06  .741446577013D-02  .671856105328D-05  .515370539284D+04
     .424800000000D+06 -.279396772385D-07 -.299465848711D+01 -.163912773132D-06
     .963555443106D+00  .248781250000D+03 -.229390740435D+01 -.791711549392D-08
     .155006456641D-09  .100000000000D+01  .169600000000D+04  .000000000000D+00
     .240000000000D+01  .000000000000D+00 -.107102096081D-07  .570000000000D+02
     .417606000000D+06  .400000000000D+01
18 12  7 12 22  0  0.0  .204933341593D-03  .181898940355D-11  .000000000000D+00
     .110000000000D+02  .663750000000D+02  .496984987134D-08 -.174228631640D+01
     .334903597832D-05  .135591069702D-01  .895746052265D-05  .515371105766D+04
     .424800000000D+06  .303611159325D-06 -.928549279313D+00 -.130385160446D-06
     .929172881792D+00  .190156250000D+03 -.216323279259D+01 -.802604860285D-08
    -.173935816553D-09  .100000000000D+01  .169600000000D+04  .000000000000D+00
     .240000000000D+01  .000000000000D+00 -.107102096081D-07  .110000000000D+02
     .417606000000D+06  .400000000000D+01
20 12  7 12 22  0  0.0  .647250562906D-04  .454747350886D-12  .000000000000D+00
     .740000000000D+02  .469375000000D+02  .506985403691D-08 -.135735690526D+01
     .237859785557D-05  .491466559470D-02  .859797000885D-05  .515367446327D+04
     .424800000000D+06  .651925802231D-07 -.982249526110D+00  .145286321640D-06
     .929641221848D+00  .197625000000D+03  .128842353389D+01 -.826212986516D-08
    -.290726395636D-09  .100000000000D+01  .169600000000D+04  .000000000000D+00
     .240000000000D+01  .000000000000D+00 -.791624188423D-08  .740000000000D+02
     .417606000000D+06  .400000000000D+01
21 12  7 12 22  0  0.0 -.236168038100D-03 -.250111042988D-11  .000000000000D+00
     .670000000000D+02 -.834375000000D+01  .550844373451D-08 -.633623107369D+00
    -.359490513802D-06  .192796713673D-01  .737234950066D-05  .515358721733D+04
     .424800000000D+06  .745058059692D-08 -.197931338870D+01  .324100255966D-06
     .931126213899D+00  .221031250000D+03 -.223502914731D+01 -.869679082767D-08
    -.373229832235D-09  .100000000000D+01  .169600000000D+04  .000000000000D+00
     .240000000000D+01  .000000000000D+00 -.111758708954D-07  .670000000000D+02
     .417606000000D+06  .400000000000D+01
